{
  "norad_id": 64195,
  "name": "STARLINK-33857",
  "history": [
    {
      "epoch": "2026-03-28T22:21:01.808352Z",
      "apogee_km": 475.79984546884407,
      "perigee_km": 474.5241723913223,
      "latitude_deg": -2.1278135112629095e-05,
      "longitude_deg": -160.0307891051926,
      "height_km": 476.2148079057578,
      "semi_major_axis_km": 6853.299008930083,
      "eccentricity": 9.307e-05,
      "inclination_deg": 53.1606,
      "raan_deg": 1.5714,
      "arg_perigee_deg": 103.9863,
      "mean_anomaly_deg": 256.1241,
      "mean_motion_rev_day": 15.30217771
    },
    {
      "epoch": "2026-03-29T01:29:08.476224Z",
      "apogee_km": 476.0256012370619,
      "perigee_km": 474.4465840765142,
      "latitude_deg": -1.5783980013986027e-05,
      "longitude_deg": 152.20547469869535,
      "height_km": 475.89022968517,
      "semi_major_axis_km": 6853.373092656788,
      "eccentricity": 0.0001152,
      "inclination_deg": 53.1607,
      "raan_deg": 0.9642,
      "arg_perigee_deg": 71.9784,
      "mean_anomaly_deg": 288.1342,
      "mean_motion_rev_day": 15.30192959
    },
    {
      "epoch": "2026-03-29T23:25:53.255712Z",
      "apogee_km": 475.7310867972328,
      "perigee_km": 474.5654800362281,
      "latitude_deg": 4.23404733901356e-06,
      "longitude_deg": 177.8712280435715,
      "height_km": 476.14024588838447,
      "semi_major_axis_km": 6853.28528341673,
      "eccentricity": 8.504e-05,
      "inclination_deg": 53.1601,
      "raan_deg": 356.7178,
      "arg_perigee_deg": 99.2113,
      "mean_anomaly_deg": 260.8984,
      "mean_motion_rev_day": 15.30222368
    },
    {
      "epoch": "2026-03-30T10:24:16.042464Z",
      "apogee_km": 475.9596354180112,
      "perigee_km": 474.4649199405494,
      "latitude_deg": 2.1046420372917104e-05,
      "longitude_deg": 10.702551336842095,
      "height_km": 475.88405224100825,
      "semi_major_axis_km": 6853.34927767928,
      "eccentricity": 0.00010905,
      "inclination_deg": 53.1597,
      "raan_deg": 354.5947,
      "arg_perigee_deg": 72.3514,
      "mean_anomaly_deg": 287.7606,
      "mean_motion_rev_day": 15.30200935
    },
    {
      "epoch": "2026-03-30T21:22:38.215776Z",
      "apogee_km": 475.91109822050385,
      "perigee_km": 474.42393114081733,
      "latitude_deg": 4.067843910318802e-05,
      "longitude_deg": -156.4661602564056,
      "height_km": 475.8470060137666,
      "semi_major_axis_km": 6853.30451468066,
      "eccentricity": 0.0001085,
      "inclination_deg": 53.1603,
      "raan_deg": 352.469,
      "arg_perigee_deg": 72.8764,
      "mean_anomaly_deg": 287.2356,
      "mean_motion_rev_day": 15.30215927
    },
    {
      "epoch": "2026-03-31T20:53:25.217664Z",
      "apogee_km": 475.82384831739364,
      "perigee_km": 474.4230418824145,
      "latitude_deg": -7.80155986883742e-06,
      "longitude_deg": -154.67538312799442,
      "height_km": 476.1015116853441,
      "semi_major_axis_km": 6853.260445099904,
      "eccentricity": 0.0001022,
      "inclination_deg": 53.1593,
      "raan_deg": 347.9213,
      "arg_perigee_deg": 96.5348,
      "mean_anomaly_deg": 263.5769,
      "mean_motion_rev_day": 15.30230687
    },
    {
      "epoch": "2026-04-01T00:01:31.959840Z",
      "apogee_km": 475.9850699587041,
      "perigee_km": 474.7452714160272,
      "latitude_deg": -2.6413959061792418e-05,
      "longitude_deg": 157.56145244673198,
      "height_km": 476.2521547978869,
      "semi_major_axis_km": 6853.502170687365,
      "eccentricity": 9.045e-05,
      "inclination_deg": 53.1602,
      "raan_deg": 347.315,
      "arg_perigee_deg": 88.9288,
      "mean_anomaly_deg": 271.1816,
      "mean_motion_rev_day": 15.3014973
    },
    {
      "epoch": "2026-04-02T16:46:55.193088Z",
      "apogee_km": 475.6443461273584,
      "perigee_km": 474.57661017026385,
      "latitude_deg": -2.3744495110101716e-05,
      "longitude_deg": -103.3491571214006,
      "height_km": 475.85786781428425,
      "semi_major_axis_km": 6853.247478148811,
      "eccentricity": 7.79e-05,
      "inclination_deg": 53.1595,
      "raan_deg": 339.425,
      "arg_perigee_deg": 73.531,
      "mean_anomaly_deg": 286.5776,
      "mean_motion_rev_day": 15.3023503
    },
    {
      "epoch": "2026-04-02T23:03:07.925760Z",
      "apogee_km": 475.8887023641464,
      "perigee_km": 474.48212647181117,
      "latitude_deg": -2.327445712136253e-05,
      "longitude_deg": 161.12758250297907,
      "height_km": 475.6089668280874,
      "semi_major_axis_km": 6853.3224144179785,
      "eccentricity": 0.00010262,
      "inclination_deg": 53.1598,
      "raan_deg": 338.2123,
      "arg_perigee_deg": 47.4924,
      "mean_anomaly_deg": 312.6163,
      "mean_motion_rev_day": 15.30209932
    },
    {
      "epoch": "2026-04-03T20:59:53.493216Z",
      "apogee_km": 475.7123461900637,
      "perigee_km": 474.7830272265455,
      "latitude_deg": 1.2351013240891557e-05,
      "longitude_deg": -173.2114452152452,
      "height_km": 476.23976559539796,
      "semi_major_axis_km": 6853.384686708304,
      "eccentricity": 6.78e-05,
      "inclination_deg": 53.1596,
      "raan_deg": 333.9644,
      "arg_perigee_deg": 101.5769,
      "mean_anomaly_deg": 258.5308,
      "mean_motion_rev_day": 15.30189076
    },
    {
      "epoch": "2026-04-04T20:30:40.589280Z",
      "apogee_km": 475.8414864168644,
      "perigee_km": 474.68326192262975,
      "latitude_deg": 3.331215723440153e-05,
      "longitude_deg": -171.4242119951155,
      "height_km": 475.9789678304571,
      "semi_major_axis_km": 6853.399374169747,
      "eccentricity": 8.45e-05,
      "inclination_deg": 53.1602,
      "raan_deg": 329.4135,
      "arg_perigee_deg": 71.6703,
      "mean_anomaly_deg": 288.439,
      "mean_motion_rev_day": 15.30184157
    },
    {
      "epoch": "2026-04-05T09:03:06.536736Z",
      "apogee_km": 475.87677931304916,
      "perigee_km": 474.4649978879979,
      "latitude_deg": -2.8038668098972846e-06,
      "longitude_deg": -2.4745758332318406,
      "height_km": 475.76369147272317,
      "semi_major_axis_km": 6853.307888600523,
      "eccentricity": 0.000103,
      "inclination_deg": 53.1608,
      "raan_deg": 326.9863,
      "arg_perigee_deg": 64.3257,
      "mean_anomaly_deg": 295.785,
      "mean_motion_rev_day": 15.30214797
    },
    {
      "epoch": "2026-04-05T15:19:19.112160Z",
      "apogee_km": 475.96800220890054,
      "perigee_km": 474.31499143546625,
      "latitude_deg": 3.6164319472084564e-05,
      "longitude_deg": -97.9960511840142,
      "height_km": 475.7415942510074,
      "semi_major_axis_km": 6853.278496822183,
      "eccentricity": 0.0001206,
      "inclination_deg": 53.1612,
      "raan_deg": 325.7747,
      "arg_perigee_deg": 68.8424,
      "mean_anomaly_deg": 291.2706,
      "mean_motion_rev_day": 15.30224641
    },
    {
      "epoch": "2026-04-05T21:35:31.995168Z",
      "apogee_km": 476.0140361737376,
      "perigee_km": 474.54562308382265,
      "latitude_deg": 5.2675131687815464e-05,
      "longitude_deg": 166.47647162530782,
      "height_km": 475.7746758282809,
      "semi_major_axis_km": 6853.41682962878,
      "eccentricity": 0.00010713,
      "inclination_deg": 53.1612,
      "raan_deg": 324.5584,
      "arg_perigee_deg": 303.5711,
      "mean_anomaly_deg": 56.5188,
      "mean_motion_rev_day": 15.30178311
    },
    {
      "epoch": "2026-04-07T14:20:55.144608Z",
      "apogee_km": 475.95080126786706,
      "perigee_km": 474.3829024126426,
      "latitude_deg": 2.3520720706620304e-05,
      "longitude_deg": -94.43201762961323,
      "height_km": 476.1688439791325,
      "semi_major_axis_km": 6853.3038518402545,
      "eccentricity": 0.00011439,
      "inclination_deg": 53.1616,
      "raan_deg": 316.6702,
      "arg_perigee_deg": 97.5909,
      "mean_anomaly_deg": 262.5222,
      "mean_motion_rev_day": 15.30216149
    },
    {
      "epoch": "2026-04-07T20:37:07.193856Z",
      "apogee_km": 475.84978272237913,
      "perigee_km": 474.2899928347206,
      "latitude_deg": 2.911218571282275e-05,
      "longitude_deg": 170.04818025889276,
      "height_km": 475.9001970562762,
      "semi_major_axis_km": 6853.20688777855,
      "eccentricity": 0.0001138,
      "inclination_deg": 53.1605,
      "raan_deg": 315.4581,
      "arg_perigee_deg": 84.9964,
      "mean_anomaly_deg": 275.1167,
      "mean_motion_rev_day": 15.30248625
    },
    {
      "epoch": "2026-04-07T22:11:10.189536Z",
      "apogee_km": 475.7657246963936,
      "perigee_km": 474.35245859837414,
      "latitude_deg": -6.81660917556932e-05,
      "longitude_deg": 146.16825070483154,
      "height_km": 475.86410234127993,
      "semi_major_axis_km": 6853.196091647384,
      "eccentricity": 0.00010311,
      "inclination_deg": 53.1609,
      "raan_deg": 315.1551,
      "arg_perigee_deg": 82.3941,
      "mean_anomaly_deg": 277.7176,
      "mean_motion_rev_day": 15.30252241
    },
    {
      "epoch": "2026-04-09T19:38:42.634464Z",
      "apogee_km": 475.92563093681565,
      "perigee_km": 474.209588502541,
      "latitude_deg": -4.4303172979395164e-05,
      "longitude_deg": 173.6204402875286,
      "height_km": 475.42949408016005,
      "semi_major_axis_km": 6853.204609719678,
      "eccentricity": 0.0001252,
      "inclination_deg": 53.1599,
      "raan_deg": 306.3594,
      "arg_perigee_deg": 51.288,
      "mean_anomaly_deg": 308.8232,
      "mean_motion_rev_day": 15.30249388
    },
    {
      "epoch": "2026-04-10T06:37:04.895904Z",
      "apogee_km": 476.5098079488407,
      "perigee_km": 473.8671656411325,
      "latitude_deg": 2.1087936191649624e-05,
      "longitude_deg": 6.45169286715287,
      "height_km": 475.9133319100204,
      "semi_major_axis_km": 6853.325486794986,
      "eccentricity": 0.0001928,
      "inclination_deg": 53.1614,
      "raan_deg": 304.234,
      "arg_perigee_deg": 82.4996,
      "mean_anomaly_deg": 277.6224,
      "mean_motion_rev_day": 15.30208903
    }
  ]
}